{
    "links": {
        "self": "http://www.neowsapp.com/rest/v1/neo/54013535?api_key=iIulBulltgU6a56xZRHN4H3l9WmuAYTsLGpBGhQ2"
    },
    "id": "54013535",
    "neo_reference_id": "54013535",
    "name": "(2020 EC)",
    "designation": "2020 EC",
    "nasa_jpl_url": "http://ssd.jpl.nasa.gov/sbdb.cgi?sstr=54013535",
    "absolute_magnitude_h": 19.541,
    "estimated_diameter": {
        "kilometers": {
            "estimated_diameter_min": 0.328363576,
            "estimated_diameter_max": 0.7342432772
        },
        "meters": {
            "estimated_diameter_min": 328.3635759702,
            "estimated_diameter_max": 734.2432772042
        },
        "miles": {
            "estimated_diameter_min": 0.2040356036,
            "estimated_diameter_max": 0.4562374794
        },
        "feet": {
            "estimated_diameter_min": 1077.308354586,
            "estimated_diameter_max": 2408.9347135827
        }
    },
    "is_potentially_hazardous_asteroid": false,
    "close_approach_data": [
        {
            "close_approach_date": "2020-02-06",
            "close_approach_date_full": "2020-Feb-06 06:03",
            "epoch_date_close_approach": 1580968980000,
            "relative_velocity": {
                "kilometers_per_second": "25.3049638508",
                "kilometers_per_hour": "91097.8698629909",
                "miles_per_hour": "56604.6736379234"
            },
            "miss_distance": {
                "astronomical": "0.3857633076",
                "lunar": "150.0619266564",
                "kilometers": "57709369.141114812",
                "miles": "35858939.1831839256"
            },
            "orbiting_body": "Earth"
        }
    ],
    "orbital_data": {
        "orbit_id": "4",
        "orbit_determination_date": "2020-03-15 07:08:58",
        "first_observation_date": "2020-03-03",
        "last_observation_date": "2020-03-15",
        "data_arc_in_days": 12,
        "observations_used": 35,
        "orbit_uncertainty": "9",
        "minimum_orbit_intersection": ".209208",
        "jupiter_tisserand_invariant": "3.013",
        "epoch_osculation": "2458913.5",
        "eccentricity": ".6949381021551335",
        "semi_major_axis": "2.515021078387371",
        "inclination": "19.19874393561383",
        "ascending_node_longitude": "250.1957135194077",
        "orbital_period": "1456.836690705583",
        "perihelion_distance": ".7672371032926942",
        "perihelion_argument": "174.2172783430186",
        "aphelion_distance": "4.262805053482048",
        "perihelion_time": "2458852.101525252537",
        "mean_anomaly": "15.17222283740082",
        "mean_motion": ".2471107450112633",
        "equinox": "J2000",
        "orbit_class": {
            "orbit_class_type": "APO",
            "orbit_class_description": "Near-Earth asteroid orbits which cross the Earth’s orbit similar to that of 1862 Apollo",
            "orbit_class_range": "a (semi-major axis) > 1.0 AU; q (perihelion) < 1.017 AU"
        }
    },
    "is_sentry_object": false
}